GLOBALSTAR M045         
1 25676U 99019A   25082.23542140 -.00000056  00000+0  33536-3 0  9996
2 25676  51.9963 190.2501 0000844  98.0278 276.0033 12.27059020183088
GLOBALSTAR M019         
1 25677U 99019B   25082.07360882  .00000027  00000+0  12223-2 0  9996
2 25677  51.9886 315.0192 0001549 117.6925  33.5017 12.13871853174872
GLOBALSTAR M044         
1 25678U 99019C   25082.21263214 -.00000018  00000+0  91782-3 0  9993
2 25678  51.9951 255.2358 0005799 228.5987 302.0478 11.90247969161067
GLOBALSTAR M042         
1 25679U 99019D   25081.95673828 -.00000068  00000+0  22622-3 0  9992
2 25679  52.0013 294.3875 0003626 113.8803  25.9186 12.22080874174716
GLOBALSTAR M025         
1 25770U 99031A   25081.83773749 -.00000084  00000+0 -51174-3 0  9991
2 25770  51.9861 359.3060 0001822  19.3583  22.1434 11.22558600472011
GLOBALSTAR M049         
1 25771U 99031B   25081.88256493 -.00000143  00000+0 -27060-2 0  9991
2 25771  51.9907  29.6253 0002604 226.0896 133.9686 11.12115297107821
GLOBALSTAR M047         
1 25772U 99031C   25081.60789469 -.00000050  00000+0  54829-3 0  9996
2 25772  51.9860  35.4892 0016521 113.4789 246.7755 11.31926569461306
GLOBALSTAR M052         
1 25773U 99031D   25081.92758722 -.00000057  00000+0  31047-3 0  9994
2 25773  51.9843 139.4158 0002191  38.3307 132.3745 11.15058538468880
